LIME                    
1 62648U 25009AR  26068.73906781  .00013254  00000+0  47723-3 0  9995
2 62648  97.3985 151.4831 0001635  35.9029 324.2320 15.28703313 63766
STARLINK-36183          
1 67173U 25303L   26068.04139274  .00045748  00000+0  16613-2 0  9995
2 67173  43.0008 314.5763 0001771 267.5782  92.4867 15.27587617 12630
